EUTELSAT 7A             
1 28187U 04008A   26001.22207679  .00000110  00000+0  00000+0 0  9992
2 28187   5.4064  74.0250 0001392 224.1372 103.4538  1.00269848 79672
EUTELSAT 174A           
1 28924U 05052A   26001.07004788  .00000018  00000+0  00000+0 0  9997
2 28924   3.7953  78.6216 0006328 204.1075  17.1837  1.00271203 50651
EUTELSAT HOTBIRD 13B    
1 29270U 06032A   26001.25613703  .00000167  00000+0  00000+0 0  9999
2 29270   1.2304  84.1878 0003580 199.7657 302.2420  1.00271484 45636
EUTELSAT HOTBIRD 13C    
1 33459U 08065A   26001.23958358 -.00000273  00000+0  00000+0 0  9996
2 33459   2.5209  81.1998 0003734 200.2998 215.3468  1.00269915 45671
EUTELSAT 36B            
1 36101U 09065A   26001.25960372  .00000124  00000+0  00000+0 0  9999
2 36101   0.0744  55.9031 0006137 225.1336 323.8502  1.00274092 59035
EUTELSAT KA-SAT 9A      
1 37258U 10069A   25365.82335750  .00000076  00000+0  00000+0 0  9996
2 37258   0.0505 338.8667 0001079 211.0550 215.9398  1.00271535 42321
EUTELSAT 7 WEST A       
1 37816U 11051A   26001.24816363 -.00000048  00000+0  00000+0 0  9996
2 37816   0.0627   8.2559 0005147 229.2809 305.3923  1.00271014 52200
EUTELSAT 16A            
1 37836U 11057A   26001.25275700  .00000117  00000+0  00000+0 0  9995
2 37836   0.0556   7.3656 0005781 276.4000 284.1524  1.00274013  5652
